NORAD_CAT_ID,OBJECT_NAME,OBJECT_TYPE,EPOCH,MEAN_MOTION,ECCENTRICITY,INCLINATION,RA_OF_ASC_NODE,ARG_OF_PERICENTER,MEAN_ANOMALY,BSTAR,MEAN_MOTION_DOT,MEAN_MOTION_DDOT,TLE_LINE0,TLE_LINE1,TLE_LINE2,SEMIMAJOR_AXIS,PERIOD,APOGEE,PERIGEE,DECAYED
53173.0,STARLINK-4300,PAYLOAD,2023-03-03 13:30:19,15.09336828,0.0001414,53.2178,46.7499,43.9716,316.1389,-0.010646,-0.00168066,0.0,0 STARLINK-4300,1 53173U 22083AT  23062.56273111 -.00168066  00000-0 -10646-1 0  9990,2 53173  53.2178  46.7499 0001414  43.9716 316.1389 15.09336828 35954,6916.362,95.406,539.205,537.249,0.0
53173.0,STARLINK-4300,PAYLOAD,2023-03-03 15:05:41,15.09314,0.0002479,53.2174,46.4518,31.0775,329.0363,-0.0090695,-0.0014363,0.0,0 STARLINK-4300,1 53173U 22083AT  23062.62895644 -.00143630  00000-0 -90695-2 0  9991,2 53173  53.2174  46.4518 0002479  31.0775 329.0363 15.09314000 35328,6916.432,95.408,540.012,536.582,0.0
53173.0,STARLINK-4300,PAYLOAD,2023-03-04 02:13:21,15.08983305,0.0001071,53.217,44.3705,62.1281,297.9819,-0.0060659,-0.00095916,0.0,0 STARLINK-4300,1 53173U 22083AT  23063.09260474 -.00095916  00000-0 -60659-2 0  9990,2 53173  53.2170  44.3705 0001071  62.1281 297.9819 15.08983305 36030,6917.442,95.428,540.048,538.567,0.0
53173.0,STARLINK-4300,PAYLOAD,2023-03-04 10:10:17,15.08865946,0.0001487,53.2182,42.8839,81.8524,278.2637,-0.0020599,-0.00032945,0.0,0 STARLINK-4300,1 53173U 22083AT  23063.42380791 -.00032945  00000-0 -20599-2 0  9994,2 53173  53.2182  42.8839 0001487  81.8524 278.2637 15.08865946 36088,6917.801,95.436,540.695,538.637,0.0
53173.0,STARLINK-4300,PAYLOAD,2023-03-04 22:53:23,15.08824964,0.000163,53.2183,40.5048,83.2525,276.8653,0.0012871,0.00020247,0.0,0 STARLINK-4300,1 53173U 22083AT  23063.95374587  .00020247  00000-0  12871-2 0  9992,2 53173  53.2183  40.5048 0001630  83.2525 276.8653 15.08824964 36169,6917.926,95.439,540.919,538.664,0.0
53173.0,STARLINK-4300,PAYLOAD,2023-03-05 10:01:05,15.08860577,0.0001577,53.2183,38.4239,82.4318,277.6854,0.0026893,0.00042797,0.0,0 STARLINK-4300,1 53173U 22083AT  23064.41742581  .00042797  00000-0  26893-2 0  9990,2 53173  53.2183  38.4239 0001577  82.4318 277.6854 15.08860577 36238,6917.817,95.436,540.773,538.592,0.0
53173.0,STARLINK-4300,PAYLOAD,2023-03-05 13:11:52,15.08845786,0.0001601,53.2186,37.8283,73.1956,286.9211,0.0015228,0.00024034,0.0,0 STARLINK-4300,1 53173U 22083AT  23064.54990840  .00024034  00000-0  15228-2 0  9991,2 53173  53.2186  37.8283 0001601  73.1956 286.9211 15.08845786 35612,6917.863,95.437,540.835,538.62,0.0
53173.0,STARLINK-4300,PAYLOAD,2023-03-05 22:44:10,15.0887387,0.0001247,53.2194,36.0458,80.9217,279.1916,0.0021279,0.00033771,0.0,0 STARLINK-4300,1 53173U 22083AT  23064.94734188  .00033771  00000-0  21279-2 0  9997,2 53173  53.2194  36.0458 0001247  80.9217 279.1916 15.08873870 35675,6917.777,95.435,540.505,538.779,0.0
53173.0,STARLINK-4300,PAYLOAD,2023-03-06 08:16:27,15.08918754,0.0001379,53.2187,34.2605,90.6481,269.4669,0.0034202,0.00054685,0.0,0 STARLINK-4300,1 53173U 22083AT  23065.34476656  .00054685  00000-0  34202-2 0  9992,2 53173  53.2187  34.2605 0001379  90.6481 269.4669 15.08918754 36374,6917.64,95.433,540.459,538.551,0.0
53173.0,STARLINK-4300,PAYLOAD,2023-03-06 22:34:56,15.08848574,0.0001528,53.2188,31.5842,125.155,234.9586,0.0008505,0.00013277,0.0,0 STARLINK-4300,1 53173U 22083AT  23065.94093334  .00013277  00000-0  85050-3 0  9996,2 53173  53.2188  31.5842 0001528 125.1550 234.9586 15.08848574 35821,6917.854,95.437,540.776,538.662,0.0
53173.0,STARLINK-4300,PAYLOAD,2023-03-07 04:56:29,15.08849229,0.0001081,53.2183,30.3945,119.9506,240.1594,0.0022086,0.00035046,0.0,0 STARLINK-4300,1 53173U 22083AT  23066.20589682  .00035046  00000-0  22086-2 0  9999,2 53173  53.2183  30.3945 0001081 119.9506 240.1594 15.08849229 36505,6917.852,95.437,540.465,538.969,0.0
53173.0,STARLINK-4300,PAYLOAD,2023-03-07 09:42:38,15.08863519,0.0001422,53.2182,29.5024,134.4629,225.6479,0.0026585,0.00042304,0.0,0 STARLINK-4300,1 53173U 22083AT  23066.40461472  .00042304  00000-0  26585-2 0  9990,2 53173  53.2182  29.5024 0001422 134.4629 225.6479 15.08863519 35898,6917.809,95.436,540.657,538.69,0.0
53173.0,STARLINK-4300,PAYLOAD,2023-03-08 01:36:30,15.08855325,0.0001536,53.2183,26.5288,151.4698,208.6378,0.0017691,0.00027991,0.0,0 STARLINK-4300,1 53173U 22083AT  23067.06701805  .00027991  00000-0  17691-2 0  9993,2 53173  53.2183  26.5288 0001536 151.4698 208.6378 15.08855325 36637,6917.834,95.437,540.761,538.636,0.0
53173.0,STARLINK-4300,PAYLOAD,2023-03-08 06:22:39,15.08865134,0.0001081,53.2186,25.6376,109.3899,250.721,0.0024439,0.00038848,0.0,0 STARLINK-4300,1 53173U 22083AT  23067.26573902  .00038848  00000-0  24439-2 0  9991,2 53173  53.2186  25.6376 0001081 109.3899 250.7210 15.08865134 36023,6917.804,95.436,540.416,538.921,0.0
53173.0,STARLINK-4300,PAYLOAD,2023-03-09 03:02:40,15.08886266,0.0001359,53.2182,21.7684,106.8237,253.2904,0.0036712,0.000587,0.0,0 STARLINK-4300,1 53173U 22083AT  23068.12686204  .00058700  00000-0  36712-2 0  9993,2 53173  53.2182  21.7684 0001359 106.8237 253.2904 15.08886266 36795,6917.739,95.435,540.544,538.664,0.0
53173.0,STARLINK-4300,PAYLOAD,2023-03-09 04:38:03,15.08873604,0.00011,53.2191,21.4742,97.9882,262.1235,0.0025615,0.00040752,0.0,0 STARLINK-4300,1 53173U 22083AT  23068.19310127  .00040752  00000-0  25615-2 0  9996,2 53173  53.2191  21.4742 0001100  97.9882 262.1235 15.08873604 36807,6917.778,95.435,540.404,538.882,0.0
53173.0,STARLINK-4300,PAYLOAD,2023-03-10 02:53:27,15.08892477,0.0001458,53.22,17.3093,88.3026,271.8133,0.0026741,0.00042589,0.0,0 STARLINK-4300,1 53173U 22083AT  23069.12045349  .00042589  00000-0  26741-2 0  9992,2 53173  53.2200  17.3093 0001458  88.3026 271.8133 15.08892477 36949,6917.72,95.434,540.594,538.576,0.0
53173.0,STARLINK-4300,PAYLOAD,2023-03-10 14:01:08,15.0885758,0.0001273,53.2204,15.2284,111.4989,248.6139,0.00015814,2.231e-05,0.0,0 STARLINK-4300,1 53173U 22083AT  23069.58412767  .00002231  00000-0  15814-3 0  9994,2 53173  53.2204  15.2284 0001273 111.4989 248.6139 15.08857580 37016,6917.827,95.436,540.572,538.811,0.0
53173.0,STARLINK-4300,PAYLOAD,2023-03-11 02:44:14,15.08832956,0.0001593,53.2203,12.8504,113.9757,246.1402,0.0016906,0.00026715,0.0,0 STARLINK-4300,1 53173U 22083AT  23070.11405899  .00026715  00000-0  16906-2 0  9998,2 53173  53.2203  12.8504 0001593 113.9757 246.1402 15.08832956 37092,6917.902,95.438,540.869,538.665,0.0
53173.0,STARLINK-4300,PAYLOAD,2023-03-11 23:24:16,15.08842844,0.0001439,53.2195,8.9861,112.4237,247.6908,0.0015622,0.00024664,0.0,0 STARLINK-4300,1 53173U 22083AT  23070.97519044  .00024664  00000-0  15622-2 0  9995,2 53173  53.2195   8.9861 0001439 112.4237 247.6908 15.08842844 37229,6917.872,95.437,540.732,538.741,0.0
53173.0,STARLINK-4300,PAYLOAD,2023-03-12 05:45:48,15.08854063,0.0001266,53.2189,7.7957,107.5287,252.5843,0.00166,0.0002624,0.0,0 STARLINK-4300,1 53173U 22083AT  23071.24014944  .00026240  00000-0  16600-2 0  9994,2 53173  53.2189   7.7957 0001266 107.5287 252.5843 15.08854063 36625,6917.837,95.437,540.578,538.827,0.0
53173.0,STARLINK-4300,PAYLOAD,2023-03-12 20:04:17,15.08847404,0.0001796,53.2185,5.1177,115.4526,244.6652,0.00068415,0.00010619,0.0,0 STARLINK-4300,1 53173U 22083AT  23071.83630992  .00010619  00000-0  68415-3 0  9991,2 53173  53.2185   5.1177 0001796 115.4526 244.6652 15.08847404 37351,6917.858,95.437,540.965,538.48,0.0
53173.0,STARLINK-4300,PAYLOAD,2023-03-13 04:01:12,15.08858101,0.0001945,53.2189,3.6337,73.2763,286.8442,0.00065788,0.00010203,0.0,0 STARLINK-4300,1 53173U 22083AT  23072.16750851  .00010203  00000-0  65788-3 0  9994,2 53173  53.2189   3.6337 0001945  73.2763 286.8442 15.08858101 36761,6917.825,95.436,541.036,538.345,0.0
53173.0,STARLINK-4300,PAYLOAD,2023-03-14 03:52:00,15.0883561,0.0001102,53.2182,359.17,78.9689,281.1427,9.8545e-05,1.281e-05,0.0,0 STARLINK-4300,1 53173U 22083AT  23073.16111335  .00001281  00000-0  98545-4 0  9997,2 53173  53.2182 359.1700 0001102  78.9689 281.1427 15.08835610 37550,6917.894,95.438,540.521,538.996,0.0
53173.0,STARLINK-4300,PAYLOAD,2023-03-14 11:48:55,15.08839272,0.0001114,53.218,357.6842,69.72,290.3912,0.00026933,4.001e-05,0.0,0 STARLINK-4300,1 53173U 22083AT  23073.49231415  .00004001  00000-0  26933-3 0  9999,2 53173  53.2180 357.6842 0001114  69.7200 290.3912 15.08839272 36961,6917.883,95.438,540.518,538.977,0.0
53173.0,STARLINK-4300,PAYLOAD,2023-03-15 03:42:46,15.08893973,0.0001279,53.2178,354.7121,62.7867,297.3256,0.0021624,0.00034346,0.0,0 STARLINK-4300,1 53173U 22083AT  23074.15470182  .00034346  00000-0  21624-2 0  9995,2 53173  53.2178 354.7121 0001279  62.7867 297.3256 15.08893973 37709,6917.715,95.434,540.465,538.696,0.0
53173.0,STARLINK-4300,PAYLOAD,2023-03-15 05:18:09,15.08900177,0.0001287,53.2178,354.4144,62.5227,297.5895,0.0022586,0.000359,0.0,0 STARLINK-4300,1 53173U 22083AT  23074.22093917  .00035900  00000-0  22586-2 0  9995,2 53173  53.2178 354.4144 0001287  62.5227 297.5895 15.08900177 37074,6917.696,95.434,540.452,538.671,0.0
53173.0,STARLINK-4300,PAYLOAD,2023-03-15 19:36:34,15.08945669,0.0001253,53.2178,351.7374,65.2718,294.8405,0.0020789,0.00033049,0.0,0 STARLINK-4300,1 53173U 22083AT  23074.81706444  .00033049  00000-0  20789-2 0  9991,2 53173  53.2178 351.7374 0001253  65.2718 294.8405 15.08945669 37169,6917.557,95.431,540.289,538.556,0.0
53173.0,STARLINK-4300,PAYLOAD,2023-03-16 03:33:33,15.08856512,0.0001469,53.2173,350.2521,82.0901,278.0258,0.0020485,0.00032479,0.0,0 STARLINK-4300,1 53173U 22083AT  23075.14830589  .00032479  00000-0  20485-2 0  9995,2 53173  53.2173 350.2521 0001469  82.0901 278.0258 15.08856512 37856,6917.83,95.437,540.711,538.679,0.0
53173.0,STARLINK-4300,PAYLOAD,2023-03-16 17:52:01,15.08841106,0.000167,53.2165,347.5748,110.4442,249.6729,0.00076271,0.00011872,0.0,0 STARLINK-4300,1 53173U 22083AT  23075.74446759  .00011872  00000-0  76271-3 0  9992,2 53173  53.2165 347.5748 0001670 110.4442 249.6729 15.08841106 37947,6917.877,95.437,540.897,538.587,0.0
